CUBESX-HSE 3 (RS42S)    
1 57178U 23091N   25015.56094568  .00013087  00000+0  67986-3 0  9996
2 57178  97.5854  73.0894 0016261 104.8109 255.4926 15.16111181 85606
MONITOR-3 (RS58S)       
1 57180U 23091Q   25015.58598718  .00010165  00000+0  54570-3 0  9996
2 57180  97.5845  72.7029 0016756 106.0639 254.2439 15.15007572 85586
MONITOR-4 (RS57S)       
1 57182U 23091S   25015.58600062  .00010499  00000+0  56330-3 0  9990
2 57182  97.5839  72.6626 0016818 106.6639 253.6441 15.15017441 85580
MONITOR-2 (RS39S)       
1 57184U 23091U   25015.59847176  .00006150  00000+0  36184-3 0  9996
2 57184  97.5851  72.2305 0014605 102.7371 257.5493 15.11924490 85552
SVYATOBOR 1 (RS60S)     
1 57187U 23091X   25015.55753913  .00010669  00000+0  56963-3 0  9997
2 57187  97.5852  73.3666 0013500  97.7363 262.5403 15.15230613 85621
VIZARD-METEO (RS38S)    
1 57189U 23091Z   25015.54524332  .00013733  00000+0  67030-3 0  9991
2 57189  97.5842  74.3998 0012154  93.5423 266.7201 15.18337680 85690
NANOZOND 1 (RS49S)      
1 57190U 23091AA  25015.59138558  .00022850  00000+0  90490-3 0  9995
2 57190  97.5802  76.2901 0009554  93.3745 266.8585 15.25392248 85839
POLYTECH-UNIVERSE 3 (R*)
1 57191U 23091AB  25015.53781678  .00006539  00000+0  38331-3 0  9999
2 57191  97.5821  71.7616 0019398 118.6846 241.6337 15.11960605 85530
UTMN 2 (RS27S)          
1 57203U 23091AP  25015.57796748  .00012308  00000+0  62129-3 0  9994
2 57203  97.5839  74.0452 0012517  94.6699 265.5964 15.17184054 85670
ARCCUBE 1 (RS25S)       
1 57205U 23091AR  25015.57605311  .00036209  00000+0  12587-2 0  9999
2 57205  97.5747  77.0257 0008919  91.6079 268.6182 15.29605594 85896
KUZGTU 1 (RS47S)        
1 57217U 23091AV  25015.60448226  .00011795  00000+0  62004-3 0  9999
2 57217  97.5829  72.8477 0016396 106.1608 254.1430 15.15717969 85605
SONATE-2                
1 59112U 24043Q   25015.32363573  .00018639  00000+0  67598-3 0  9990
2 59112  97.4959 144.5556 0011644 271.3087  88.6819 15.28332038 48093
MESAT1                  
1 60209U 24125G   25015.10286936  .00018131  00000+0  65067-3 0  9999
2 60209  97.2951 228.9208 0021099 300.9179  58.9986 15.28529143 29672
OOV-CUBE (TUBSAT-30)    
1 60240U 24128F   25015.56664587  .00003140  00000+0  27295-3 0  9994
2 60240  61.9950 225.5067 0034091  19.2014 341.0351 14.98776243 28418
COLIBRI-S (RS67S)       
1 61746U 24199M   25015.60366192  .00014523  00000+0  55117-3 0  9991
2 61746  97.3785 245.4769 0013842 346.4894  13.5972 15.26857938 57922
HORS 3 (RS81S)          
1 61753U 24199U   25015.60415635  .00017797  00000+0  67080-3 0  9994
2 61753  97.3759 245.4522 0012630 354.9914   5.1196 15.27056048 57928
HORS 4 (RS82S)          
1 61754U 24199V   25015.59539805  .00019072  00000+0  71149-3 0  9998
2 61754  97.3756 245.4629 0012823 355.1394   4.9719 15.27380313 57926
HORIZON (RS59S)         
1 61757U 24199Y   25015.57356248  .00023258  00000+0  84552-3 0  9990
2 61757  97.3784 245.5153 0013609 345.0677  15.0158 15.28181151 57928
SIT-2086                
1 61764U 24199AF  25015.56813078  .00020621  00000+0  75396-3 0  9993
2 61764  97.3760 245.5005 0011101 357.1442   2.9732 15.28046946 54769
MORDOVIA-IOT (RS50S)    
1 61765U 24199AG  25015.60279178  .00030145  00000+0  10533-2 0  9999
2 61765  97.3782 245.6282 0013266 342.1041  17.9730 15.29429325 54788
RUZAEVKA 390 (RS44S)    
1 61766U 24199AH  25015.60752625  .00025023  00000+0  88296-3 0  9994
2 61766  97.3781 245.6193 0013070 341.8137  18.2634 15.29150701 54780
HYPERVIEW 1G (RS66S)    
1 61772U 24199AP  25015.55870300  .00020657  00000+0  77813-3 0  9997
2 61772  97.3756 245.3592 0016767 356.2711   3.8400 15.26985531 54766
ALTAIR (RS65S)          
1 61779U 24199AW  25015.60340147  .00010285  00000+0  41256-3 0  9999
2 61779  97.3767 245.3059 0017108 356.5706   3.5412 15.25049098 57918
ASRTU-1 (AO-123)        
1 61781U 24199AY  25015.61224563  .00010401  00000+0  41932-3 0  9997
2 61781  97.3764 245.2940 0017331 356.8353   3.2772 15.24875198 54768
TUSUR GO (RS78S)        
1 61782U 24199AZ  25015.57501265  .00023870  00000+0  90720-3 0  9993
2 61782  97.3757 245.3400 0017991 355.3803   4.7267 15.26641807 54764
SAMSAT-IONOSPHERE (RS7*)
1 61784U 24199BB  25015.58328471  .00019456  00000+0  75032-3 0  9996
2 61784  97.3761 245.3287 0017793 355.8248   4.2839 15.26202355 57913
RTU MIREA 1 (RS51S)     
1 61785U 24199BC  25015.58105519  .00019294  00000+0  74190-3 0  9997
2 61785  97.3759 245.3321 0017665 355.4069   4.7004 15.26302313 54769
